STARLINK-4091           
1 52830U 22062A   22191.58334491 -.00076562  00000+0 -54588-3 0  9992
2 52830  53.2158 290.7730 0001986  27.1642 203.6365 15.73205452  1301
STARLINK-4089           
1 52831U 22062B   22191.58334491  .00035776  00000+0  25856-3 0  9999
2 52831  53.2159 290.7778 0002321  26.0309 202.6651 15.73169284  1306
STARLINK-4083           
1 52832U 22062C   22191.58334491  .00029092  00000+0  21116-3 0  9999
2 52832  53.2157 290.7761 0002186  28.8258 200.4485 15.73179252  1306
STARLINK-4086           
1 52833U 22062D   22191.58334491  .00134208  00000+0  94645-3 0  9993
2 52833  53.2163 290.7775 0002205  24.1551 205.7365 15.73174346  1300
STARLINK-4108           
1 52834U 22062E   22191.58334491  .00136755  00000+0  96439-3 0  9996
2 52834  53.2156 290.7714 0002127  20.9004 210.2316 15.73165853  1306
STARLINK-4080           
1 52835U 22062F   22191.58334491  .00084027  00000+0  59816-3 0  9999
2 52835  53.2162 290.7735 0002224  27.4720 204.2391 15.73158647  1301
STARLINK-4043           
1 52836U 22062G   22191.58334491  .00025418  00000+0  18521-3 0  9997
2 52836  53.2156 290.7700 0002180  24.3727 207.9184 15.73168926  1302
STARLINK-4036           
1 52837U 22062H   22191.58334491  .00025060  00000+0  18270-3 0  9992
2 52837  53.2157 290.7660 0002335  31.6082 202.7533 15.73164851  1300
STARLINK-4092           
1 52838U 22062J   22191.58334491 -.00000761  00000+0 -99125-6 0  9997
2 52838  53.2175 290.7685 0002270  31.6219 201.4232 15.73204289  1300
STARLINK-4048           
1 52839U 22062K   22191.58334491  .00011907  00000+0  89314-4 0  9997
2 52839  53.2159 290.7647 0002238  27.3149 208.2634 15.73153669  1305
STARLINK-4049           
1 52840U 22062L   22191.58334491  .00154291  00000+0  10867-2 0  9998
2 52840  53.2157 290.7653 0002160  18.7167 215.9343 15.73133892  1308
STARLINK-4065           
1 52841U 22062M   22191.58334491  .00025071  00000+0  18271-3 0  9990
2 52841  53.2162 290.7630 0002247  40.5085 196.5416 15.73174408  1301
STARLINK-4046           
1 52842U 22062N   22191.58334491  .00056281  00000+0  40337-3 0  9996
2 52842  53.2158 290.7684 0002137  25.1652 208.2992 15.73161910  1307
STARLINK-4188           
1 52843U 22062P   22191.58334491  .00054311  00000+0  38911-3 0  9994
2 52843  53.2162 290.7602 0001897  26.6316 211.6178 15.73185751  1301
STARLINK-4208           
1 52844U 22062Q   22191.58334491 -.00029686  00000+0 -20755-3 0  9991
2 52844  53.2158 290.7626 0002302  29.0431 207.1079 15.73228259  1301
STARLINK-4168           
1 52845U 22062R   22191.58334491 -.00062803  00000+0 -44616-3 0  9992
2 52845  53.2154 290.7553 0001903  28.8808 210.2987 15.73210207  1305
STARLINK-4212           
1 52846U 22062S   22191.58334491  .00161640  00000+0  11364-2 0  9993
2 52846  53.2159 290.7604 0002190  24.1385 213.5184 15.73151446  1300
STARLINK-4206           
1 52847U 22062T   22191.58334491 -.00000788  00000+0 -11811-5 0  9991
2 52847  53.2175 290.7548 0002430  21.1913 219.0071 15.73204275  1302
STARLINK-4202           
1 52848U 22062U   22191.58334491  .00025086  00000+0  18271-3 0  9993
2 52848  53.2157 290.7614 0002349  34.1910 202.2748 15.73188059  1303
STARLINK-4197           
1 52849U 22062V   22191.58334491  .00001152  00000+0  12623-4 0  9998
2 52849  53.2157 290.7524 0002220  25.8065 215.7034 15.73225366  1300
STARLINK-4187           
1 52850U 22062W   22191.58334491  .00034004  00000+0  24599-3 0  9996
2 52850  53.2160 290.7565 0002331  31.3882 208.3926 15.73172460  1307
STARLINK-3809           
1 52851U 22062X   22191.58334491  .00057238  00000+0  40719-3 0  9993
2 52851  53.2156 290.7506 0002449  28.3155 213.9180 15.73328781  1300
STARLINK-4184           
1 52852U 22062Y   22191.58334491 -.00075828  00000+0 -54006-3 0  9995
2 52852  53.2158 290.7533 0002255  26.6094 214.3129 15.73225552  1301
STARLINK-4189           
1 52853U 22062Z   22191.58334491 -.00085640  00000+0 -61121-3 0  9995
2 52853  53.2162 290.7505 0002158  25.9112 217.3900 15.73226731  1301
STARLINK-4204           
1 52854U 22062AA  22191.58334491  .00034023  00000+0  24598-3 0  9990
2 52854  53.2158 290.7497 0002361  32.9017 209.8280 15.73186123  1302
STARLINK-4209           
1 52855U 22062AB  22191.58334491  .00051267  00000+0  36794-3 0  9991
2 52855  53.2163 290.7482 0002375  36.7658 208.0231 15.73168317  1303
STARLINK-4201           
1 52856U 22062AC  22191.58334491 -.00025149  00000+0 -17504-3 0  9992
2 52856  53.2159 290.7473 0002182  27.4402 216.4505 15.73231150  1302
STARLINK-4199           
1 52857U 22062AD  22191.58334491  .00027774  00000+0  20181-3 0  9992
2 52857  53.2159 290.7443 0002304  26.9265 219.0768 15.73180458  1301
STARLINK-4198           
1 52858U 22062AE  22191.58334491  .00045403  00000+0  32639-3 0  9993
2 52858  53.2158 290.7465 0002139  37.3125 207.0870 15.73182860  1302
STARLINK-4196           
1 52859U 22062AF  22191.58334491 -.00074358  00000+0 -52941-3 0  9995
2 52859  53.2161 290.7440 0002210  20.8100 226.1226 15.73225745  1307
STARLINK-4191           
1 52860U 22062AG  22191.58334491 -.00038083  00000+0 -26774-3 0  9997
2 52860  53.2161 290.7451 0002299  21.0917 224.5889 15.73231982  1304
STARLINK-4112           
1 52861U 22062AH  22191.58334491  .00052110  00000+0  37414-3 0  9996
2 52861  53.2155 290.7362 0002075  31.9664 217.6481 15.73152524  1305
STARLINK-4010           
1 52862U 22062AJ  22191.58334491  .00027964  00000+0  20287-3 0  9996
2 52862  53.2152 290.7394 0002381  33.4150 213.6872 15.73214022  1307
STARLINK-4270           
1 52863U 22062AK  22191.58334491  .00033590  00000+0  24299-3 0  9996
2 52863  53.2159 290.7398 0002184  26.3144 222.0759 15.73179413  1306
STARLINK-4267           
1 52864U 22062AL  22191.58334491  .00029394  00000+0  21342-3 0  9990
2 52864  53.2163 290.7414 0002447  32.4160 215.6798 15.73165025  1304
STARLINK-4274           
1 52865U 22062AM  22191.58334491 -.00000998  00000+0 -26809-5 0  9997
2 52865  53.2175 290.7341 0002086  28.7373 222.1910 15.73204383  1300
STARLINK-4272           
1 52866U 22062AN  22191.58334491  .00026916  00000+0  19573-3 0  9992
2 52866  53.2156 290.7379 0002110  32.8490 216.1418 15.73181237  1303
STARLINK-4126           
1 52867U 22062AP  22191.58334491  .00016948  00000+0  12508-3 0  9998
2 52867  53.2158 290.7316 0002148  24.7277 227.5622 15.73171630  1300
STARLINK-4261           
1 52868U 22062AQ  22191.58334491 -.00223442  00000+0 -16240-2 0  9996
2 52868  53.2165 290.7342 0002030  32.9976 217.4352 15.73286068  1305
STARLINK-4266           
1 52869U 22062AR  22191.58334491  .00051458  00000+0  36914-3 0  9992
2 52869  53.2161 290.7329 0002204  24.5468 228.0375 15.73178152  1300
STARLINK-4195           
1 52870U 22062AS  22191.58334491 -.00036669  00000+0 -25779-3 0  9990
2 52870  53.2156 290.7321 0002243  26.9386 224.7233 15.73214114  1301
STARLINK-4207           
1 52871U 22062AT  22191.58334491  .00005476  00000+0  43447-4 0  9994
2 52871  53.2153 290.7259 0002040  23.2638 231.3850 15.73183110  1304
STARLINK-4213           
1 52872U 22062AU  22191.58334491  .00078423  00000+0  55890-3 0  9991
2 52872  53.2154 290.7284 0002036  25.3546 227.8438 15.73160497  1305
STARLINK-4211           
1 52873U 22062AV  22191.58334491 -.00070685  00000+0 -50305-3 0  9992
2 52873  53.2156 290.7247 0002431  26.6440 229.2295 15.73214223  1307
STARLINK-4210           
1 52874U 22062AW  22191.58334491  .00030135  00000+0  21857-3 0  9997
2 52874  53.2155 290.7270 0002421  32.2235 221.8376 15.73175832  1307
STARLINK-4193           
1 52875U 22062AX  22191.58334491  .00029250  00000+0  21229-3 0  9997
2 52875  53.2155 290.7238 0002279  24.6596 231.4653 15.73177646  1308
STARLINK-4200           
1 52876U 22062AY  22191.58334491  .00349673  00000+0  24193-2 0  9994
2 52876  53.2175 290.7250 0002232  36.2659 219.0012 15.72949465  1309
STARLINK-4214           
1 52877U 22062AZ  22191.58334491  .00006605  00000+0  51414-4 0  9998
2 52877  53.2157 290.7209 0002004  29.2238 228.3955 15.73216410  1303
STARLINK-4171           
1 52878U 22062BA  22191.58334491  .00042221  00000+0  30379-3 0  9999
2 52878  53.2155 290.7225 0002160  23.7127 233.0065 15.73194217  1304
STARLINK-4139           
1 52879U 22062BB  22191.58334491 -.00063114  00000+0 -44822-3 0  9994
2 52879  53.2156 290.7177 0002166  27.4559 231.9620 15.73219167  1304
STARLINK-4186           
1 52880U 22062BC  22191.58334491  .00002232  00000+0  20350-4 0  9999
2 52880  53.2154 290.7177 0001997  20.5130 238.3308 15.73164420  1309
STARLINK-4192           
1 52881U 22062BD  22191.58334491  .00033761  00000+0  24419-3 0  9990
2 52881  53.2158 290.7216 0002323  31.3308 226.5747 15.73180638  1304
STARLINK-4181           
1 52882U 22062BE  22191.58334491  .00119936  00000+0  84735-3 0  9997
2 52882  53.2159 290.7183 0002223  26.6804 233.0323 15.73184125  1304
FALCON 9 DEB            
1 52883U 22062BF  22188.79240019  .07116221  12340-4  45491-3 0  9991
2 52883  53.2105 300.6387 0007992 106.1842 254.0087 16.40944681  3259
FALCON 9 DEB            
1 52884U 22062BG  22189.15508000  .10731535  12508-4  27620-3 0  9995
2 52884  53.1966 298.6141 0005042  87.6062 272.5566 16.45634105  3315
FALCON 9 DEB            
1 52885U 22062BH  22188.52263366  .06756059  12449-4  30044-3 0  9990
2 52885  53.2091 301.7802 0004599  81.1646 278.9925 16.43276845  3218
SARAH-1                 
1 52887U 22063A   22174.76914807  .00057931  00000+0  16917-1 0  9990
2 52887  98.3930 181.8659 0001741 114.3380 245.7128 14.43706701  1277
GLOBALSTAR FM15         
1 52888U 22064A   22191.32194308 -.00000128  00000+0  00000+0 0  9990
2 52888  51.9747 156.5755 0009727   9.2090 350.8982 13.37539453  2791
PVSAT                   
1 52894U 22065A   22191.42171308  .00000158  00000+0  44385-4 0  9995
2 52894  98.0225 342.0343 0009865 171.4191 188.7179 14.57448330  2784
